{"version": 0.6, "generator": "Overpass API 0.7.56.9 76e5016d", "osm3s": {"timestamp_osm_base": "2021-08-30T14:26:43Z", "copyright": "The data included in this document is from www.openstreetmap.org. The data is made available under ODbL."}, "elements": [{"type": "node", "id": 30124513, "lat": -43.4717664, "lon": 172.5703371}, {"type": "node", "id": 30124514, "lat": -43.4718794, "lon": 172.5700629}, {"type": "node", "id": 30178170, "lat": -43.33093, "lon": 172.6039582, "tags": {"crossing:barrier": "half", "crossing:light": "yes", "railway": "level_crossing"}}, {"type": "node", "id": 30178647, "lat": -43.3745542, "lon": 172.6470876, "tags": {"crossing": "no", "highway": "traffic_signals"}}, {"type": "node", "id": 30178708, "lat": -43.3755856, "lon": 172.6494499}, {"type": "node", "id": 30178796, "lat": -43.3742722, "lon": 172.6463913}, {"type": "node", "id": 30179062, "lat": -43.3731327, "lon": 172.6436651}, {"type": "node", "id": 30179063, "lat": -43.3730143, "lon": 172.643449}, {"type": "node", "id": 30179065, "lat": -43.372152, "lon": 172.6422094}, {"type": "node", "id": 30179066, "lat": -43.3696347, "lon": 172.6400716}, {"type": "node", "id": 30179067, "lat": -43.3687079, "lon": 172.6393341}, {"type": "node", "id": 30179068, "lat": -43.3547384, "lon": 172.6262944}, {"type": "node", "id": 30179069, "lat": -43.341592, "lon": 172.6140584}, {"type": "node", "id": 30179070, "lat": -43.3325211, "lon": 172.6056281}, {"type": "node", "id": 30179071, "lat": -43.3319655, "lon": 172.6052176}, {"type": "node", "id": 30179072, "lat": -43.3312093, "lon": 172.6048042}, {"type": "node", "id": 30179073, "lat": -43.331015, "lon": 172.6045351}, {"type": "node", "id": 30179074, "lat": -43.330949, "lon": 172.6042843}, {"type": "node", "id": 30179075, "lat": -43.3309166, "lon": 172.6036847}, {"type": "node", "id": 30179076, "lat": -43.3307867, "lon": 172.6032615}, {"type": "node", "id": 30179077, "lat": -43.3305853, "lon": 172.6030706}, {"type": "node", "id": 30179078, "lat": -43.3292837, "lon": 172.6023837, "tags": {"note": "SH 71 ends here, at the 50km/h sign"}}, {"type": "node", "id": 30267390, "lat": -43.3440837, "lon": 172.6163714}, {"type": "node", "id": 31080607, "lat": -43.3728653, "lon": 172.643192}, {"type": "node", "id": 31936712, "lat": -43.4781518, "lon": 172.5848599}, {"type": "node", "id": 32254635, "lat": -43.4721096, "lon": 172.5705335}, {"type": "node", "id": 32254636, "lat": -43.47224, "lon": 172.5705642}, {"type": "node", "id": 32254637, "lat": -43.4770244, "lon": 172.5820934}, {"type": "node", "id": 32254661, "lat": -43.4720752, "lon": 172.5703448}, {"type": "node", "id": 470212522, "lat": -43.3310678, "lon": 172.6046465}, {"type": "node", "id": 470212523, "lat": -43.3322154, "lon": 172.6053704}, {"type": "node", "id": 470212524, "lat": -43.3616929, "lon": 172.6328728}, {"type": "node", "id": 470212525, "lat": -43.3657155, "lon": 172.6366848}, {"type": "node", "id": 470212526, "lat": -43.3724675, "lon": 172.6425721}, {"type": "node", "id": 470215328, "lat": -43.3742409, "lon": 172.646312}, {"type": "node", "id": 471288894, "lat": -43.3296979, "lon": 172.6025986}, {"type": "node", "id": 471788431, "lat": -43.3711452, "lon": 172.6413424}, {"type": "node", "id": 573918719, "lat": -43.3718906, "lon": 172.6419632}, {"type": "node", "id": 1172666705, "lat": -43.4760387, "lon": 172.5797429}, {"type": "node", "id": 2166210901, "lat": -43.4756378, "lon": 172.5787629}, {"type": "node", "id": 2322515007, "lat": -43.3746796, "lon": 172.6473851}, {"type": "node", "id": 2322515009, "lat": -43.373996, "lon": 172.6456913, "tags": {"highway": "traffic_signals", "traffic_signals": "signal"}}, {"type": "node", "id": 2812554919, "lat": -43.373737, "lon": 172.6450593}, {"type": "node", "id": 2812554924, "lat": -43.3736823, "lon": 172.6449286}, {"type": "node", "id": 3604027118, "lat": -43.3734103, "lon": 172.6442674}, {"type": "node", "id": 5235483238, "lat": -43.374049, "lon": 172.6455482}, {"type": "node", "id": 5235483249, "lat": -43.3746061, "lon": 172.647222}, {"type": "node", "id": 5235483250, "lat": -43.3751424, "lon": 172.6484282}, {"type": "node", "id": 5235483267, "lat": -43.3732759, "lon": 172.6439683}, {"type": "node", "id": 5235483280, "lat": -43.3747162, "lon": 172.6472041, "tags": {"highway": "traffic_signals", "traffic_signals": "signal"}}, {"type": "node", "id": 5235483288, "lat": -43.3751653, "lon": 172.6483927}, {"type": "node", "id": 5235483289, "lat": -43.3750244, "lon": 172.6480261}, {"type": "node", "id": 5235483290, "lat": -43.3748549, "lon": 172.6475626}, {"type": "node", "id": 5235483292, "lat": -43.3742903, "lon": 172.6461966}, {"type": "node", "id": 5235483294, "lat": -43.374356, "lon": 172.6463315, "tags": {"highway": "traffic_signals", "traffic_signals": "signal"}}, {"type": "node", "id": 5235483295, "lat": -43.3746315, "lon": 172.6470065}, {"type": "node", "id": 5235483296, "lat": -43.3755202, "lon": 172.6493393}, {"type": "node", "id": 5235483297, "lat": -43.3755489, "lon": 172.6493273}, {"type": "node", "id": 5235483302, "lat": -43.3737799, "lon": 172.6449237}, {"type": "node", "id": 5235483303, "lat": -43.3736016, "lon": 172.6445051}, {"type": "node", "id": 5235483304, "lat": -43.3733641, "lon": 172.6439626}, {"type": "node", "id": 5235483305, "lat": -43.3732337, "lon": 172.6436927}, {"type": "node", "id": 5235483306, "lat": -43.3730382, "lon": 172.643342}, {"type": "node", "id": 5235483307, "lat": -43.3729011, "lon": 172.6431476}, {"type": "node", "id": 5235483308, "lat": -43.3727818, "lon": 172.6429918}, {"type": "node", "id": 5242398851, "lat": -43.4721777, "lon": 172.5706254}, {"type": "node", "id": 5242398852, "lat": -43.4722149, "lon": 172.5705367}, {"type": "node", "id": 5242398853, "lat": -43.4723175, "lon": 172.570797}, {"type": "node", "id": 5242398854, "lat": -43.4720407, "lon": 172.5704674}, {"type": "node", "id": 5242398855, "lat": -43.4719904, "lon": 172.5704246}, {"type": "node", "id": 5242398856, "lat": -43.4718586, "lon": 172.5703659}, {"type": "node", "id": 5242398857, "lat": -43.472235, "lon": 172.5707245}, {"type": "node", "id": 5242398858, "lat": -43.4722909, "lon": 172.5706614}, {"type": "node", "id": 5242398859, "lat": -43.4721472, "lon": 172.5704396}, {"type": "node", "id": 5242398860, "lat": -43.4720204, "lon": 172.5702774}, {"type": "node", "id": 5242398861, "lat": -43.4719565, "lon": 172.57019}, {"type": "node", "id": 5599376999, "lat": -43.4719281, "lon": 172.570391}, {"type": "node", "id": 6170181257, "lat": -43.4749394, "lon": 172.5770872}, {"type": "node", "id": 6170181597, "lat": -43.4751856, "lon": 172.5776779}, {"type": "node", "id": 6170192305, "lat": -43.4734862, "lon": 172.5736009}, {"type": "node", "id": 6170192308, "lat": -43.4740897, "lon": 172.5750486}, {"type": "node", "id": 7622978610, "lat": -43.4774285, "lon": 172.5831056}, {"type": "node", "id": 7787068084, "lat": -43.3742575, "lon": 172.6461397}, {"type": "node", "id": 8226258345, "lat": -43.3700281, "lon": 172.6403893}, {"type": "node", "id": 8226258346, "lat": -43.3680914, "lon": 172.6387995}, {"type": "node", "id": 8226258391, "lat": -43.346041, "lon": 172.6181826}, {"type": "node", "id": 8226258396, "lat": -43.3431884, "lon": 172.6155388}, {"type": "node", "id": 8226446917, "lat": -43.337362, "lon": 172.6101248}, {"type": "node", "id": 8226446919, "lat": -43.3355836, "lon": 172.6084695}, {"type": "node", "id": 8226446921, "lat": -43.3340948, "lon": 172.6070834}, {"type": "node", "id": 8226446923, "lat": -43.3329095, "lon": 172.6059851}, {"type": "node", "id": 8226446928, "lat": -43.3309356, "lon": 172.6041353}, {"type": "node", "id": 8226446929, "lat": -43.3309742, "lon": 172.6044043}, {"type": "node", "id": 8226446930, "lat": -43.3311386, "lon": 172.6047314}, {"type": "node", "id": 8226446931, "lat": -43.3313285, "lon": 172.6048766}, {"type": "node", "id": 8226446932, "lat": -43.3316675, "lon": 172.6050571}, {"type": "node", "id": 8226446933, "lat": -43.3320983, "lon": 172.605294}, {"type": "node", "id": 8226446934, "lat": -43.3323771, "lon": 172.6054972}, {"type": "node", "id": 8226446935, "lat": -43.3327007, "lon": 172.6057898}, {"type": "node", "id": 8226446936, "lat": -43.3308533, "lon": 172.603396}, {"type": "node", "id": 8226446937, "lat": -43.3308867, "lon": 172.6035077}, {"type": "node", "id": 8226446938, "lat": -43.3306945, "lon": 172.603152}, {"type": "node", "id": 8441619690, "lat": -43.4719719, "lon": 172.5704146}, {"type": "node", "id": 8441619717, "lat": -43.4720351, "lon": 172.5702955, "tags": {"highway": "crossing"}}, {"type": "node", "id": 8910698550, "lat": -43.3741019, "lon": 172.6457268}, {"type": "node", "id": 8910698551, "lat": -43.3734835, "lon": 172.6442283}, {"type": "node", "id": 8910698580, "lat": -43.3736166, "lon": 172.644769}, {"type": "node", "id": 8910698597, "lat": -43.374892, "lon": 172.6478639}, {"type": "way", "id": 4733648, "nodes": [30178796, 30178647], "tags": {"bridge": "yes", "destination": "Kaiapoi Town Centre;The Pines Beach;Kairaki", "highway": "primary", "lanes": "1", "layer": "1", "maxspeed": "80", "name": "Lineside Road", "oneway": "yes", "placement": "middle_of:1", "ref": "SH 71", "surface": "paved", "turn:lanes": "through|right|right"}}, {"type": "way", "id": 4831379, "nodes": [470215328, 30178796], "tags": {"highway": "primary", "lanes": "2", "maxspeed": "80", "name": "Lineside Road", "oneway": "yes", "placement": "middle_of:1", "ref": "SH 71", "surface": "paved", "turn:lanes": "through|right"}}, {"type": "way", "id": 4920239, "nodes": [30124513, 5242398856, 5599376999, 8441619690, 5242398855, 5242398854, 32254635, 5242398851, 5242398857, 5242398853], "tags": {"destination": "Casebrook", "highway": "primary", "lanes": "2", "maxspeed": "60", "name": "Sawyers Arms Road", "oneway": "yes", "surface": "asphalt"}}, {"type": "way", "id": 4920240, "nodes": [5242398853, 5242398858, 32254636, 5242398852, 5242398859, 32254661, 8441619717, 5242398860, 5242398861, 30124514], "tags": {"highway": "primary", "lanes": "2", "maxspeed": "60", "name": "Sawyers Arms Road", "oneway": "yes", "surface": "asphalt"}}, {"type": "way", "id": 39245047, "nodes": [5242398853, 6170192305, 6170192308, 6170181257, 6170181597, 2166210901], "tags": {"highway": "primary", "maxspeed": "60", "name": "Sawyers Arms Road", "surface": "paved"}}, {"type": "way", "id": 39373320, "nodes": [30179078, 471288894, 30179077, 8226446938, 30179076, 8226446936, 8226446937, 30179075, 30178170, 8226446928, 30179074, 8226446929, 30179073, 470212522, 8226446930, 30179072, 8226446931, 8226446932, 30179071, 8226446933, 470212523, 8226446934, 30179070, 8226446935, 8226446923, 8226446921, 8226446919, 8226446917, 30179069, 8226258396, 30267390, 8226258391, 30179068, 470212524, 470212525, 8226258346, 30179067, 30179066, 8226258345, 471788431], "tags": {"highway": "primary", "lanes": "2", "maxspeed": "100", "name": "Lineside Road", "oneway": "no", "ref": "SH 71", "surface": "paved"}}, {"type": "way", "id": 151181499, "nodes": [2322515007, 8910698597, 5235483250, 5235483296, 30178708], "tags": {"destination": "Kaiapoi Town Centre;The Pines Beach;Kairaki", "highway": "primary", "lanes": "1", "maxspeed": "80", "name": "Smith Street", "oneway": "yes", "surface": "paved"}}, {"type": "way", "id": 206595866, "nodes": [2166210901, 1172666705, 32254637, 7622978610, 31936712], "tags": {"highway": "primary", "maxspeed": "50", "name": "Sawyers Arms Road", "surface": "paved"}}, {"type": "way", "id": 276665511, "nodes": [2322515009, 470215328], "tags": {"highway": "primary", "lanes": "2", "maxspeed": "80", "name": "Lineside Road", "oneway": "yes", "placement": "middle_of:1", "ref": "SH 71", "surface": "paved", "turn:lanes": "through|"}}, {"type": "way", "id": 276665513, "nodes": [471788431, 573918719, 30179065, 470212526, 5235483308], "tags": {"highway": "primary", "lanes": "2", "maxspeed": "80", "name": "Lineside Road", "oneway": "no", "ref": "SH 71", "surface": "paved"}}, {"type": "way", "id": 541418163, "nodes": [5235483297, 5235483288, 5235483289, 5235483290, 5235483280], "tags": {"destination": "Rangiora", "highway": "primary", "lanes": "1", "maxspeed": "80", "name": "Smith Street", "oneway": "yes", "surface": "paved"}}, {"type": "way", "id": 541418165, "nodes": [5235483295, 5235483294], "tags": {"bridge": "yes", "highway": "primary", "lanes": "1", "layer": "1", "maxspeed": "80", "name": "Lineside Road", "oneway": "yes", "ref": "SH 71", "surface": "paved"}}, {"type": "way", "id": 541418167, "nodes": [5235483303, 8910698551, 5235483304, 5235483305, 5235483306], "tags": {"highway": "primary", "lanes": "1", "maxspeed": "80", "name": "Lineside Road", "oneway": "yes", "ref": "SH 71", "surface": "paved"}}, {"type": "way", "id": 541418168, "nodes": [30179063, 30179062, 5235483267, 3604027118], "tags": {"highway": "primary", "lanes": "2", "maxspeed": "80", "name": "Lineside Road", "oneway": "yes", "placement": "middle_of:1", "ref": "SH 71", "surface": "paved"}}, {"type": "way", "id": 804375416, "nodes": [5235483280, 5235483295], "tags": {"highway": "primary", "lanes": "1", "maxspeed": "80", "name": "Smith Street", "oneway": "yes", "ref": "SH 71", "surface": "paved"}}, {"type": "way", "id": 805915050, "nodes": [5235483308, 31080607, 30179063], "tags": {"highway": "primary", "lanes": "1", "maxspeed": "80", "name": "Lineside Road", "oneway": "yes", "ref": "SH 71", "surface": "paved", "turn:lanes": "through"}}, {"type": "way", "id": 805915051, "nodes": [2812554924, 2812554919, 2322515009], "tags": {"highway": "primary", "lanes": "2", "maxspeed": "80", "name": "Lineside Road", "oneway": "yes", "placement": "middle_of:1", "ref": "SH 71", "surface": "paved", "turn:lanes": "through|"}}, {"type": "way", "id": 805915052, "nodes": [3604027118, 8910698580, 2812554924], "tags": {"highway": "primary", "lanes": "2", "maxspeed": "80", "name": "Lineside Road", "oneway": "yes", "placement": "middle_of:1", "ref": "SH 71", "surface": "paved", "turn:lanes": "left;through|"}}, {"type": "way", "id": 805915053, "nodes": [5235483238, 5235483302, 5235483303], "tags": {"highway": "primary", "lanes": "2", "maxspeed": "80", "name": "Lineside Road", "oneway": "yes", "placement": "middle_of:2", "ref": "SH 71", "surface": "paved"}}, {"type": "way", "id": 805915054, "nodes": [5235483306, 5235483307, 5235483308], "tags": {"highway": "primary", "lanes": "2", "maxspeed": "80", "name": "Lineside Road", "oneway": "yes", "placement": "middle_of:1", "ref": "SH 71", "surface": "paved", "turn:lanes": "through|right"}}, {"type": "way", "id": 805915056, "nodes": [30178647, 5235483249, 2322515007], "tags": {"highway": "primary", "lanes": "1", "maxspeed": "80", "name": "Smith Street", "oneway": "yes", "placement": "middle_of:1", "ref": "SH 71", "surface": "paved"}}, {"type": "way", "id": 805915057, "nodes": [5235483292, 7787068084], "tags": {"highway": "primary", "lanes": "2", "maxspeed": "80", "name": "Lineside Road", "oneway": "yes", "placement": "middle_of:1", "ref": "SH 71", "surface": "paved", "turn:lanes": "through|right"}}, {"type": "way", "id": 805915058, "nodes": [5235483294, 5235483292], "tags": {"highway": "primary", "lanes": "1", "maxspeed": "80", "name": "Lineside Road", "oneway": "yes", "ref": "SH 71", "surface": "paved"}}, {"type": "way", "id": 830832518, "nodes": [30178708, 5235483297], "tags": {"highway": "primary", "lanes": "1", "maxspeed": "80", "name": "Smith Street", "oneway": "yes", "surface": "chipseal"}}, {"type": "way", "id": 834182509, "nodes": [7787068084, 8910698550, 5235483238], "tags": {"highway": "primary", "lanes": "2", "maxspeed": "80", "name": "Lineside Road", "oneway": "yes", "placement": "middle_of:1", "ref": "SH 71", "surface": "paved", "turn:lanes": "through|right"}}]}